STARLINK-2615           
1 48678U 21044AS  26068.33317153 -.00003211  00000+0 -96377-4 0  9996
2 48678  53.1594 105.3522 0000972  93.9178 266.1934 15.30189225263913
AL MUNTHER              
1 63240U 25052AG  26068.64540749  .00017933  00000+0  65015-3 0  9992
2 63240  97.4001 323.9152 0008027 130.7043 229.4895 15.28381521 54798
